[{"OBJECT_NAME":"STARLINK-31723","OBJECT_ID":"2024-074V","EPOCH":"2026-03-09T03:50:56.291136","MEAN_MOTION":15.27587631,"ECCENTRICITY":0.00013702,"INCLINATION":43.0038,"RA_OF_ASC_NODE":346.4895,"ARG_OF_PERICENTER":262.8323,"MEAN_ANOMALY":97.2372,"EPHEMERIS_TYPE":0,"CLASSIFICATION_TYPE":"U","NORAD_CAT_ID":59553,"ELEMENT_SET_NO":999,"REV_AT_EPOCH":10593,"BSTAR":-5.2543731e-5,"MEAN_MOTION_DOT":-1.708e-5,"MEAN_MOTION_DDOT":0},{"OBJECT_NAME":"FLOCK 4G-18","OBJECT_ID":"2025-009BZ","EPOCH":"2026-03-09T04:35:14.656704","MEAN_MOTION":15.27241676,"ECCENTRICITY":0.00041001,"INCLINATION":97.4054,"RA_OF_ASC_NODE":150.5008,"ARG_OF_PERICENTER":335.7331,"MEAN_ANOMALY":24.3715,"EPHEMERIS_TYPE":0,"CLASSIFICATION_TYPE":"U","NORAD_CAT_ID":62680,"ELEMENT_SET_NO":999,"REV_AT_EPOCH":12126,"BSTAR":0.0004431856,"MEAN_MOTION_DOT":0.00011766,"MEAN_MOTION_DDOT":0}]
